SAUDISAT 1C (SO-50)     
1 27607U 02058C   26200.92670931  .00000394  00000+0  64508-4 0  9996
2 27607  64.5521  27.6843 0074380 256.4147 102.8667 14.83103564269314
SAUDISAT 2              
1 28371U 04025F   26201.27441469  .00000110  00000+0  35677-4 0  9993
2 28371  98.5523 202.1138 0024383 192.3046 167.7559 14.56699867170567
SAUDISAT 3              
1 31118U 07012B   26200.83155939  .00000100  00000+0  24333-4 0  9996
2 31118  98.1469 151.2568 0015814 120.9621 239.3142 14.71441645 32546
PISAT                   
1 41784U 16059B   26200.97512851  .00000455  00000+0  85038-4 0  9994
2 41784  97.8193 200.0217 0030553 100.2509 260.2145 14.69034443524557
FLYING LAPTOP           
1 42831U 17042G   26201.31208700  .00001686  00000+0  13499-3 0  9993
2 42831  97.4838 355.6037 0019405  16.2651 343.9193 15.01331962491421
SALSAT                  
1 46495U 20068K   26200.97640307  .00004107  00000+0  14329-3 0  9993
2 46495  97.8865 206.0496 0009725 176.0322 184.0997 15.30211220320374
